FENGYUN 1C DEB          
1 33673U 99025DFJ 17345.38671569  .00000239  00000-0  21409-3 0  9995
2 33673  99.3163 307.8780 0109413 184.6413 327.9678 13.91413700492111
